CZ-2D R/B               
1 28738U 05024B   25331.76977448  .00028162  00000+0  46558-3 0  9994
2 28738  97.3649 338.8367 0007570  51.2004 308.9924 15.52161314123939
ALOS (DAICHI)           
1 28931U 06002A   25331.85105088  .00001837  00000+0  31867-3 0  9996
2 28931  98.1073 283.4461 0000689  87.0551 273.0733 14.69416636 58521
H-2A R/B                
1 28932U 06002B   25331.85194421  .00011384  00000+0  60616-3 0  9998
2 28932  98.2312 105.3907 0054441 227.0724 132.5931 15.14119949 79013
RESURS-DK 1             
1 29228U 06021A   25331.87995252  .00003562  00000+0  21284-3 0  9998
2 29228  69.9318 140.2352 0007621 269.4708  90.5584 15.12029547 72130
CZ-4B R/B               
1 29507U 06046C   25331.84956437  .00005650  00000+0  29684-3 0  9996
2 29507  97.5759  12.0288 0032563 259.8463  99.9096 15.15648114 44617
CZ-2C R/B               
1 31114U 07010B   25331.85315758  .00000202  00000+0  11202-3 0  9996
2 31114  98.3969  85.2537 0058199 229.5564 130.0530 14.20200262965260
COSMO-SKYMED 1          
1 31598U 07023A   25331.93626647  .00005050  00000+0  46004-3 0  9991
2 31598  97.8848 157.2397 0001534  89.5839 270.5557 14.95600274999681
COSMOS 2428             
1 31792U 07029A   25331.94159588 -.00000088  00000+0 -21327-4 0  9999
2 31792  70.9375  56.9488 0002860  47.1698 312.9663 14.12886508949720
SL-16 R/B               
1 31793U 07029B   25331.62234178 -.00000075  00000+0 -14125-4 0  9998
2 31793  70.9777  26.9357 0002425 266.0255 204.5802 14.14817060950932
KORONAS-FOTON           
1 33504U 09003A   25331.88372143  .00014685  00000+0  35762-3 0  9996
2 33504  82.4325  21.4925 0012254 157.1540 203.0253 15.40713770930058
CZ-2C R/B               
1 37731U 11030B   25331.86210807  .00002024  00000+0  26333-3 0  9999
2 37731  97.8393 286.3009 0052090 323.2908  90.0053 14.80822262775026
H-2A R/B                
1 38341U 12025E   25331.84187624  .00003949  00000+0  36709-3 0  9995
2 38341  98.4582 285.9272 0043762 286.7746  72.8673 14.94298966733008
