CCSDS_OMM_VERS = 2.0
CREATION_DATE  = 
ORIGINATOR     = 

OBJECT_NAME    = CZ-2D R/B
OBJECT_ID      = 2005-024B
CENTER_NAME    = EARTH
REF_FRAME      = TEME
TIME_SYSTEM    = UTC
MEAN_ELEMENT_THEORY = SGP/SGP4

EPOCH          = 2025-11-27T18:28:28.515072
MEAN_MOTION    = 15.52161314
ECCENTRICITY   = .00075709
INCLINATION    = 97.3649
RA_OF_ASC_NODE = 338.8367
ARG_OF_PERICENTER = 51.2004
MEAN_ANOMALY   = 308.9924

EPHEMERIS_TYPE = 0
CLASSIFICATION_TYPE = U
NORAD_CAT_ID   = 28738
ELEMENT_SET_NO = 999
REV_AT_EPOCH   = 12393
BSTAR          = .46557518E-3
MEAN_MOTION_DOT = .28162E-3
MEAN_MOTION_DDOT = 0

CCSDS_OMM_VERS = 2.0
CREATION_DATE  = 
ORIGINATOR     = 

OBJECT_NAME    = ALOS (DAICHI)
OBJECT_ID      = 2006-002A
CENTER_NAME    = EARTH
REF_FRAME      = TEME
TIME_SYSTEM    = UTC
MEAN_ELEMENT_THEORY = SGP/SGP4

EPOCH          = 2025-11-27T20:25:30.796032
MEAN_MOTION    = 14.69416636
ECCENTRICITY   = .0000689
INCLINATION    = 98.1073
RA_OF_ASC_NODE = 283.4461
ARG_OF_PERICENTER = 87.0551
MEAN_ANOMALY   = 273.0733

EPHEMERIS_TYPE = 0
CLASSIFICATION_TYPE = U
NORAD_CAT_ID   = 28931
ELEMENT_SET_NO = 999
REV_AT_EPOCH   = 5852
BSTAR          = .31866957E-3
MEAN_MOTION_DOT = .1837E-4
MEAN_MOTION_DDOT = 0

CCSDS_OMM_VERS = 2.0
CREATION_DATE  = 
ORIGINATOR     = 

OBJECT_NAME    = H-2A R/B
OBJECT_ID      = 2006-002B
CENTER_NAME    = EARTH
REF_FRAME      = TEME
TIME_SYSTEM    = UTC
MEAN_ELEMENT_THEORY = SGP/SGP4

EPOCH          = 2025-11-27T20:26:47.979744
MEAN_MOTION    = 15.14119949
ECCENTRICITY   = .00544412
INCLINATION    = 98.2312
RA_OF_ASC_NODE = 105.3907
ARG_OF_PERICENTER = 227.0724
MEAN_ANOMALY   = 132.5931

EPHEMERIS_TYPE = 0
CLASSIFICATION_TYPE = U
NORAD_CAT_ID   = 28932
ELEMENT_SET_NO = 999
REV_AT_EPOCH   = 7901
BSTAR          = .60615639E-3
MEAN_MOTION_DOT = .11384E-3
MEAN_MOTION_DDOT = 0

CCSDS_OMM_VERS = 2.0
CREATION_DATE  = 
ORIGINATOR     = 

OBJECT_NAME    = RESURS-DK 1
OBJECT_ID      = 2006-021A
CENTER_NAME    = EARTH
REF_FRAME      = TEME
TIME_SYSTEM    = UTC
MEAN_ELEMENT_THEORY = SGP/SGP4

EPOCH          = 2025-11-27T21:07:07.897728
MEAN_MOTION    = 15.12029547
ECCENTRICITY   = .0007621
INCLINATION    = 69.9318
RA_OF_ASC_NODE = 140.2352
ARG_OF_PERICENTER = 269.4708
MEAN_ANOMALY   = 90.5584

EPHEMERIS_TYPE = 0
CLASSIFICATION_TYPE = U
NORAD_CAT_ID   = 29228
ELEMENT_SET_NO = 999
REV_AT_EPOCH   = 7213
BSTAR          = .21283814E-3
MEAN_MOTION_DOT = .3562E-4
MEAN_MOTION_DDOT = 0

CCSDS_OMM_VERS = 2.0
CREATION_DATE  = 
ORIGINATOR     = 

OBJECT_NAME    = CZ-4B R/B
OBJECT_ID      = 2006-046C
CENTER_NAME    = EARTH
REF_FRAME      = TEME
TIME_SYSTEM    = UTC
MEAN_ELEMENT_THEORY = SGP/SGP4

EPOCH          = 2025-11-27T20:23:22.361568
MEAN_MOTION    = 15.15648114
ECCENTRICITY   = .00325633
INCLINATION    = 97.5759
RA_OF_ASC_NODE = 12.0288
ARG_OF_PERICENTER = 259.8463
MEAN_ANOMALY   = 99.9096

EPHEMERIS_TYPE = 0
CLASSIFICATION_TYPE = U
NORAD_CAT_ID   = 29507
ELEMENT_SET_NO = 999
REV_AT_EPOCH   = 4461
BSTAR          = .2968412E-3
MEAN_MOTION_DOT = .565E-4
MEAN_MOTION_DDOT = 0

CCSDS_OMM_VERS = 2.0
CREATION_DATE  = 
ORIGINATOR     = 

OBJECT_NAME    = CZ-2C R/B
OBJECT_ID      = 2007-010B
CENTER_NAME    = EARTH
REF_FRAME      = TEME
TIME_SYSTEM    = UTC
MEAN_ELEMENT_THEORY = SGP/SGP4

EPOCH          = 2025-11-27T20:28:32.814912
MEAN_MOTION    = 14.20200262
ECCENTRICITY   = .00581999
INCLINATION    = 98.3969
RA_OF_ASC_NODE = 85.2537
ARG_OF_PERICENTER = 229.5564
MEAN_ANOMALY   = 130.0530

EPHEMERIS_TYPE = 0
CLASSIFICATION_TYPE = U
NORAD_CAT_ID   = 31114
ELEMENT_SET_NO = 999
REV_AT_EPOCH   = 96526
BSTAR          = .1120233E-3
MEAN_MOTION_DOT = .202E-5
MEAN_MOTION_DDOT = 0

CCSDS_OMM_VERS = 2.0
CREATION_DATE  = 
ORIGINATOR     = 

OBJECT_NAME    = COSMO-SKYMED 1
OBJECT_ID      = 2007-023A
CENTER_NAME    = EARTH
REF_FRAME      = TEME
TIME_SYSTEM    = UTC
MEAN_ELEMENT_THEORY = SGP/SGP4

EPOCH          = 2025-11-27T22:28:13.423008
MEAN_MOTION    = 14.95600274
ECCENTRICITY   = .00015342
INCLINATION    = 97.8848
RA_OF_ASC_NODE = 157.2397
ARG_OF_PERICENTER = 89.5839
MEAN_ANOMALY   = 270.5557

EPHEMERIS_TYPE = 0
CLASSIFICATION_TYPE = U
NORAD_CAT_ID   = 31598
ELEMENT_SET_NO = 999
REV_AT_EPOCH   = 99968
BSTAR          = .46004436E-3
MEAN_MOTION_DOT = .505E-4
MEAN_MOTION_DDOT = 0

CCSDS_OMM_VERS = 2.0
CREATION_DATE  = 
ORIGINATOR     = 

OBJECT_NAME    = COSMOS 2428
OBJECT_ID      = 2007-029A
CENTER_NAME    = EARTH
REF_FRAME      = TEME
TIME_SYSTEM    = UTC
MEAN_ELEMENT_THEORY = SGP/SGP4

EPOCH          = 2025-11-27T22:35:53.884032
MEAN_MOTION    = 14.12886508
ECCENTRICITY   = .00028607
INCLINATION    = 70.9375
RA_OF_ASC_NODE = 56.9488
ARG_OF_PERICENTER = 47.1698
MEAN_ANOMALY   = 312.9663

EPHEMERIS_TYPE = 0
CLASSIFICATION_TYPE = U
NORAD_CAT_ID   = 31792
ELEMENT_SET_NO = 999
REV_AT_EPOCH   = 94972
BSTAR          = -.21326757E-4
MEAN_MOTION_DOT = -.88E-6
MEAN_MOTION_DDOT = 0

CCSDS_OMM_VERS = 2.0
CREATION_DATE  = 
ORIGINATOR     = 

OBJECT_NAME    = SL-16 R/B
OBJECT_ID      = 2007-029B
CENTER_NAME    = EARTH
REF_FRAME      = TEME
TIME_SYSTEM    = UTC
MEAN_ELEMENT_THEORY = SGP/SGP4

EPOCH          = 2025-11-27T14:56:10.329792
MEAN_MOTION    = 14.14817060
ECCENTRICITY   = .00024257
INCLINATION    = 70.9777
RA_OF_ASC_NODE = 26.9357
ARG_OF_PERICENTER = 266.0255
MEAN_ANOMALY   = 204.5802

EPHEMERIS_TYPE = 0
CLASSIFICATION_TYPE = U
NORAD_CAT_ID   = 31793
ELEMENT_SET_NO = 999
REV_AT_EPOCH   = 95093
BSTAR          = -.14125273E-4
MEAN_MOTION_DOT = -.75E-6
MEAN_MOTION_DDOT = 0

CCSDS_OMM_VERS = 2.0
CREATION_DATE  = 
ORIGINATOR     = 

OBJECT_NAME    = KORONAS-FOTON
OBJECT_ID      = 2009-003A
CENTER_NAME    = EARTH
REF_FRAME      = TEME
TIME_SYSTEM    = UTC
MEAN_ELEMENT_THEORY = SGP/SGP4

EPOCH          = 2025-11-27T21:12:33.531552
MEAN_MOTION    = 15.40713770
ECCENTRICITY   = .00122547
INCLINATION    = 82.4325
RA_OF_ASC_NODE = 21.4925
ARG_OF_PERICENTER = 157.1540
MEAN_ANOMALY   = 203.0253

EPHEMERIS_TYPE = 0
CLASSIFICATION_TYPE = U
NORAD_CAT_ID   = 33504
ELEMENT_SET_NO = 999
REV_AT_EPOCH   = 93005
BSTAR          = .35761567E-3
MEAN_MOTION_DOT = .14685E-3
MEAN_MOTION_DDOT = 0

CCSDS_OMM_VERS = 2.0
CREATION_DATE  = 
ORIGINATOR     = 

OBJECT_NAME    = CZ-2C R/B
OBJECT_ID      = 2011-030B
CENTER_NAME    = EARTH
REF_FRAME      = TEME
TIME_SYSTEM    = UTC
MEAN_ELEMENT_THEORY = SGP/SGP4

EPOCH          = 2025-11-27T20:41:26.137248
MEAN_MOTION    = 14.80822262
ECCENTRICITY   = .00520908
INCLINATION    = 97.8393
RA_OF_ASC_NODE = 286.3009
ARG_OF_PERICENTER = 323.2908
MEAN_ANOMALY   = 90.0053

EPHEMERIS_TYPE = 0
CLASSIFICATION_TYPE = U
NORAD_CAT_ID   = 37731
ELEMENT_SET_NO = 999
REV_AT_EPOCH   = 77502
BSTAR          = .26333087E-3
MEAN_MOTION_DOT = .2024E-4
MEAN_MOTION_DDOT = 0

CCSDS_OMM_VERS = 2.0
CREATION_DATE  = 
ORIGINATOR     = 

OBJECT_NAME    = H-2A R/B
OBJECT_ID      = 2012-025E
CENTER_NAME    = EARTH
REF_FRAME      = TEME
TIME_SYSTEM    = UTC
MEAN_ELEMENT_THEORY = SGP/SGP4

EPOCH          = 2025-11-27T20:12:18.107136
MEAN_MOTION    = 14.94298966
ECCENTRICITY   = .00437624
INCLINATION    = 98.4582
RA_OF_ASC_NODE = 285.9272
ARG_OF_PERICENTER = 286.7746
MEAN_ANOMALY   = 72.8673

EPHEMERIS_TYPE = 0
CLASSIFICATION_TYPE = U
NORAD_CAT_ID   = 38341
ELEMENT_SET_NO = 999
REV_AT_EPOCH   = 73300
BSTAR          = .36709293E-3
MEAN_MOTION_DOT = .3949E-4
MEAN_MOTION_DDOT = 0

